{"dragon": {"capsule": null, "mass_returned_kg": null, "mass_returned_lbs": null, "flight_time_sec": null, "manifest": null, "water_landing": null, "land_landing": null}, "name": "Starlink-11", "type": "Satellite", "reused": false, "launch": "5ef6a1e90059c33cee4a828a", "customers": ["SpaceX"], "norad_ids": [46325, 46326, 46327, 46328, 46329, 46330, 46331, 46332, 46333, 46334, 46335, 46336, 46337, 46338, 46339, 46340, 46341, 46342, 46343, 46344, 46345, 46346, 46347, 46348, 46349, 46350, 46351, 46352, 46353, 46354, 46355, 46356, 46357, 46358, 46359, 46360, 46361, 46362, 46363, 46364, 46365, 46366, 46367, 46368, 46369, 46370, 46371, 46372, 46373, 46374, 46375, 46376, 46377, 46378, 46379, 46380, 46381, 46382, 46383, 46384], "nationalities": ["United States"], "manufacturers": ["SpaceX"], "mass_kg": 15600, "mass_lbs": 34392, "orbit": "VLEO", "reference_system": "geocentric", "regime": "very-low-earth", "longitude": null, "semi_major_axis_km": 6925.333, "eccentricity": 0.0001852, "periapsis_km": 545.916, "apoapsis_km": 548.481, "inclination_deg": 53.0539, "period_min": 95.592, "lifespan_years": null, "epoch": "2022-01-29T13:11:00.000Z", "mean_motion": 15.06405052, "raan": 226.0155, "arg_of_pericenter": 70.8128, "mean_anomaly": 289.3061, "id": "5ef6a4600059c33cee4a829e"}